[{"OBJECT_NAME":"DEMO8 (TENZING)","OBJECT_ID":"2021-059CA","EPOCH":"2026-03-09T12:02:09.080736","MEAN_MOTION":15.50975268,"ECCENTRICITY":0.00070099,"INCLINATION":97.7052,"RA_OF_ASC_NODE":254.6062,"ARG_OF_PERICENTER":356.8203,"MEAN_ANOMALY":3.3002,"EPHEMERIS_TYPE":0,"CLASSIFICATION_TYPE":"U","NORAD_CAT_ID":48951,"ELEMENT_SET_NO":999,"REV_AT_EPOCH":26183,"BSTAR":0.00038914706,"MEAN_MOTION_DOT":0.00022523,"MEAN_MOTION_DDOT":0},{"OBJECT_NAME":"FLOCK 4Q-31","OBJECT_ID":"2023-174AF","EPOCH":"2026-03-09T18:16:50.892960","MEAN_MOTION":15.50423428,"ECCENTRICITY":0.00077968,"INCLINATION":97.3938,"RA_OF_ASC_NODE":157.7607,"ARG_OF_PERICENTER":152.0999,"MEAN_ANOMALY":208.0672,"EPHEMERIS_TYPE":0,"CLASSIFICATION_TYPE":"U","NORAD_CAT_ID":58285,"ELEMENT_SET_NO":999,"REV_AT_EPOCH":13034,"BSTAR":0.00063040896,"MEAN_MOTION_DOT":0.00035916,"MEAN_MOTION_DDOT":0}]
