DEMO8 (TENZING)         
1 48951U 21059CA  26068.50149399  .00022523  00000+0  38915-3 0  9998
2 48951  97.7052 254.6062 0007009 356.8203   3.3002 15.50975268261833
FLOCK 4Q-31             
1 58285U 23174AF  26068.76170014  .00035916  00000+0  63041-3 0  9993
2 58285  97.3938 157.7607 0007797 152.0999 208.0672 15.50423428130347
